TK-2                    
1 52150U 22031A   22111.88457953  .00001721  00000+0  18167-3 0  9993
2 52150  97.7984 285.0192 0013722 179.3819 180.7418 14.90521988  3491
PUJIANG 2 (PJ-2)        
1 52151U 22031B   22111.81489032  .00000141  00000+0  20053-4 0  9993
2 52151  97.7849 284.9239 0012409 184.4936 175.6211 14.90684937  3487
CZ-6A R/B               
1 52152U 22031C   22111.50801698  .00001306  00000+0  11641-3 0  9992
2 52152  97.7861 284.8373 0026981 289.0495  70.7805 14.97530721  3451
2022-032A               
1 52153U 22032A   22111.84200900  .00001451  00000+0  15564-3 0  9999
2 52153  97.7942 161.7096 0011920 180.5359 179.5831 14.90118819  3391
2022-032C               
1 52155U 22032C   22111.81841837  .00000811  00000+0  85857-4 0  9990
2 52155  97.8006 161.7583 0015734 210.2488 149.7829 14.91821024  3382
2022-032D               
1 52156U 22032D   22111.95188245  .00001347  00000+0  13864-3 0  9996
2 52156  97.7875 161.8547 0015653 210.1368 149.8960 14.91889265  3415
OMNI-L1                 
1 52157U 22033A   22111.47789782  .00001109  00000+0  17489-3 0  9991
2 52157  97.9478 194.4280 0013237 187.6627 172.4381 14.74296775  2939
GNOMES-3                
1 52158U 22033B   22111.47051660  .00001353  00000+0  20915-3 0  9998
2 52158  97.9487 194.4402 0012555 198.3444 161.7313 14.74851967  2930
2022-033C               
1 52159U 22033C   22111.46703832  .00000456  00000+0  75314-4 0  9990
2 52159  97.9774 194.4913 0007386 209.2118 150.8679 14.74982403  2937
ALFACRUX                
1 52160U 22033D   22111.47234613  .00010186  00000+0  46806-3 0  9993
2 52160  97.3883 193.9341 0009501 222.1724 137.8781 15.20525065  3019
ARCSAT-1                
1 52161U 22033E   22111.47229590  .00005454  00000+0  25284-3 0  9991
2 52161  97.3872 193.9288 0009279 218.0200 142.0382 15.20442609  3010
LYNK TOWER 1            
1 52162U 22033F   22111.66298771  .00004077  00000+0  18706-3 0  9991
2 52162  97.3864 194.1260 0010132 200.9785 159.1036 15.20940231  3045
ION SCV-005             
1 52163U 22033G   22111.72969817  .00003711  00000+0  17299-3 0  9995
2 52163  97.5347 194.2379 0012065 191.5797 168.5163 15.20454995  3054
SPACEBEE-136            
1 52164U 22033H   22111.59430976  .00015987  00000+0  71470-3 0  9999
2 52164  97.3812 194.0519 0009486 208.6663 151.4053 15.21359993  3039
HAWK-4B                 
1 52165U 22033J   22111.59553021  .00010477  00000+0  47041-3 0  9993
2 52165  97.3864 194.0683 0010069 210.2155 149.8502 15.21308158  3030
SPACEBEE-138            
1 52166U 22033K   22111.59483914  .00016102  00000+0  72062-3 0  9999
2 52166  97.3833 194.0566 0011132 200.5927 159.4862 15.21306130  3032
HAWK-4A                 
1 52167U 22033L   22111.53150605  .00006483  00000+0  29487-3 0  9996
2 52167  97.3827 193.9967 0009958 205.9356 154.1382 15.21020522  3023
NUSAT-23 (ANNIE MAUNDER)
1 52168U 22033M   22111.53362427  .00007029  00000+0  32010-3 0  9997
2 52168  97.3850 193.9907 0009534 206.4079 153.6672 15.20953332  3021
MP42                    
1 52169U 22033N   22111.85488188  .00006798  00000+0  30548-3 0  9992
2 52169  97.3865 194.3328 0011877 204.4955 155.5718 15.21400368  3078
HAWK-4C                 
1 52170U 22033P   22111.79001837  .00004482  00000+0  20430-3 0  9996
2 52170  97.3864 194.2620 0012111 197.2712 162.8113 15.21093431  3063
NUSAT-25 (MARIA TELKES) 
1 52171U 22033Q   22111.85279803  .00008029  00000+0  35728-3 0  9991
2 52171  97.3867 194.3337 0012483 199.3891 160.6871 15.21673817  3076
NUSAT-27 (SALLY RIDE)   
1 52172U 22033R   22111.45693895  .00005977  00000+0  26614-3 0  9992
2 52172  97.3854 193.9411 0012198 196.0158 164.0694 15.21759632  3019
SHAKUNTALA              
1 52173U 22033S   22111.46532672  .00010766  00000+0  47374-3 0  9997
2 52173  97.3889 193.9729 0012554 202.0828 219.2312 15.21966004  3011
2022-033T               
1 52174U 22033T   22111.45234777  .00011598  00000+0  50821-3 0  9997
2 52174  97.3857 193.9491 0013501 194.6124 165.4723 15.22078836  3017
BDSAT                   
1 52175U 22033U   22111.18900585  .00010709  00000+0  46917-3 0  9999
2 52175  97.3883 193.7019 0013769 197.5805 162.4956 15.22103235  2976
SPACEBEE-130            
1 52176U 22033V   22111.46484708  .00016452  00000+0  73869-3 0  9992
2 52176  97.3822 193.9213 0007697 200.9074 159.1848 15.21219704  3015
SPACEBEE-139            
1 52177U 22033W   22111.46591321  .00016598  00000+0  74693-3 0  9990
2 52177  97.3831 193.9245 0010494 206.1759 153.8947 15.21117361  3015
NUSAT-24 (KALPANA CHAW*)
1 52178U 22033X   22111.53353984  .00000890  00000+0  43318-4 0  9999
2 52178  97.3890 194.0021 0009803 210.8263 149.2398 15.20914963  3021
SPACEBEE-129            
1 52179U 22033Y   22111.20336190  .00011825  00000+0  53519-3 0  9997
2 52179  97.3826 193.6626 0009021 209.5967 150.4759 15.21012654  2970
SPACEBEE-134            
1 52180U 22033Z   22111.46563046  .00014608  00000+0  65816-3 0  9994
2 52180  97.3829 193.9235 0009339 208.5007 151.5719 15.21115780  3018
SPACEBEE-131            
1 52181U 22033AA  22111.53200395  .00014603  00000+0  65874-3 0  9997
2 52181  97.3827 193.9861 0009127 209.7065 150.3654 15.21075115  3027
SPACEBEE-128            
1 52182U 22033AB  22111.46646655  .00013005  00000+0  58771-3 0  9996
2 52182  97.3837 193.9249 0009163 207.7740 152.3008 15.21038622  3013
SPACEBEE-133            
1 52183U 22033AC  22111.46602744  .00014389  00000+0  64887-3 0  9999
2 52183  97.3827 193.9222 0009175 209.6709 150.4008 15.21090168  3004
2022-033AD              
1 52184U 22033AD  22111.79649348  .00007042  00000+0  32319-3 0  9990
2 52184  97.3863 194.2533 0009669 203.2025 156.8775 15.20681499  3062
SPACEBEE-132            
1 52185U 22033AE  22111.46509420  .00014986  00000+0  67412-3 0  9998
2 52185  97.3832 193.9260 0008626 221.8735 138.1842 15.21169209  3012
SPACEBEE-137            
1 52186U 22033AF  22111.46531232  .00014318  00000+0  64477-3 0  9992
2 52186  97.3832 193.9249 0009490 208.5910 151.4806 15.21135697  3019
SPACEBEE-135            
1 52187U 22033AG  22111.46507968  .00015162  00000+0  68195-3 0  9991
2 52187  97.3838 193.9267 0008927 204.9546 155.1259 15.21168613  3012
PLANTSAT                
1 52188U 22033AH  22111.45659968  .00010205  00000+0  44714-3 0  9993
2 52188  97.3863 193.9457 0005311 219.8000 140.2847 15.22183697  3014
KSF2 C                  
1 52189U 22033AJ  22111.46547771  .00011101  00000+0  50182-3 0  9995
2 52189  97.3792 193.9246 0010448 200.0777 160.0049 15.21055849  3012
KSF2 D                  
1 52190U 22033AK  22111.46547029  .00011831  00000+0  53456-3 0  9990
2 52190  97.3797 193.9257 0010308 200.1805 159.9024 15.21057970  3016
SUCHAI-3                
1 52191U 22033AL  22111.79905521  .00009440  00000+0  43781-3 0  9995
2 52191  97.3963 194.2572 0011681 181.5479 178.5722 15.20206964  3065
2022-034A               
1 52195U 22034A   22111.87867817  .00159359  00000+0  28174-2 0  9997
2 52195  53.0025 250.2673 0013699 356.6017   3.4906 15.49192470  2994
GLOBAL-18               
1 52196U 22034B   22111.96961555  .00017982  00000+0  38677-3 0  9997
2 52196  53.0062 250.1287 0009392 359.5488   0.5531 15.44702715  3004
GLOBAL-20               
1 52197U 22034C   22111.89813452  .00018528  00000+0  39077-3 0  9994
2 52197  53.0047 250.3911 0010341 347.9612  12.1152 15.45249877  2991
GAOFEN-3 03             
1 52200U 22035A   22111.79250823 -.00003937  00000+0 -11828-2 0  9999
2 52200  98.4162 120.5268 0001656 100.0058 260.1363 14.42202037  2140
CZ-4C R/B               
1 52201U 22035B   22111.93858209  .00000705  00000+0  11450-3 0  9998
2 52201  98.3989 121.2498 0111918   4.1293 356.0809 14.70560216  2190
COSMOS 2554             
1 52202U 22036A   22111.93465137  .00000005  00000+0  57502-4 0  9996
2 52202  67.1504 316.3633 0006993 264.4188  95.6112 13.96673837  2077
SL-4 R/B                
1 52203U 22036B   22111.94087846  .00146028  85433-5  74487-3 0  9990
2 52203  67.1348 310.2266 0441382  79.1507 285.8979 15.08025823  2176
AXIOM-1                 
1 52204U 22037A   22111.52540476  .00008917  00000+0  16303-3 0  9997
2 52204  51.6419 257.2124 0005149  42.3719  73.4655 15.50173823336398
CHINASAT 6D             
1 52255U 22038A   22106.17739715 -.00000347  00000+0  00000+0 0  9998
2 52255  28.4631  20.6165 7288754 179.6852 183.1434  2.28095705    28
CZ-3B R/B               
1 52256U 22038B   22106.98508792 -.00001057  12175-5  00000+0 0  9998
2 52256  28.4754  20.2913 7219492 179.3584 182.5406  2.38783343    41
DAQI 1                  
1 52257U 22039A   22111.76897351 -.00002306  00000+0 -49625-3 0  9991
2 52257  98.1330  53.5334 0000499 223.8242 136.2935 14.57655005   877
CZ-4C R/B               
1 52258U 22039B   22111.84797010  .00002438  00000+0  21251-3 0  9991
2 52258  98.1636  53.9479 0140117  42.6048 318.5939 14.90623821   905
SZ-13 MODULE            
1 52260U 21092C   22111.54270619  .00028637  00000+0  28885-3 0  9999
2 52260  41.4805 203.2916 0007363  72.5689 287.5956 15.64693701   473
